ONEWEB-0593             
1 54659U 22166T   23298.90338451  .00000097  00000+0  20226-3 0  9993
2 54659  87.9217  76.1440 0001957 102.0470 258.0884 13.21825235 44020
ONEWEB-0594             
1 54660U 22166U   23299.45216624  .00000053  00000+0  96544-4 0  9992
2 54660  87.9216  76.0317 0001704  88.5270 271.6059 13.21825470 44575
ONEWEB-0595             
1 54661U 22166V   23298.90021002  .00000003  00000+0 -23340-4 0  9996
2 54661  87.9210  76.1348 0001348  95.5497 264.5791 13.21826865 44010
ONEWEB-0596             
1 54662U 22166W   23299.40329442  .00005372  00000+0  12973-1 0  9992
2 54662  87.9213  76.0352 0001901 110.7220 249.4118 13.21800658 44553
ONEWEB-0597             
1 54663U 22166X   23298.93017800  .00001537  00000+0  36885-2 0  9990
2 54663  87.9206  76.1303 0002067  99.9776 260.1591 13.21824474 44020
ONEWEB-0600             
1 54664U 22166Y   23298.91284687 -.00000067  00000+0 -19309-3 0  9990
2 54664  87.9217  76.1846 0001971  95.5988 264.5371 13.21823866 43998
ONEWEB-0601             
1 54665U 22166Z   23298.90494283 -.00000034  00000+0 -11395-3 0  9996
2 54665  87.9217  76.1361 0001837 112.6230 247.5098 13.21822900 44180
ONEWEB-0602             
1 54666U 22166AA  23298.41606296  .00000116  00000+0  25018-3 0  9998
2 54666  87.9214  76.2399 0002078  99.1589 260.9780 13.21824394 43965
